{"epoch":1784799577,"count":18318,"objects":[{"id":"59598","name":"GALILEO 29 (10C)","type":"PAYLOAD","l1":"1 59598U 24079A   26203.30402792 -.00000049  00000-0  00000-0 0  9992","l2":"2 59598  55.1403 100.0982 0000307 338.5943 199.0835  1.70474061 13910"},{"id":"59600","name":"GALILEO 30 (10E)","type":"PAYLOAD","l1":"1 59600U 24079C   26199.09194253 -.00000031  00000-0  00000-0 0  9997","l2":"2 59600  55.1327 100.2145 0002950  69.2435 290.8270  1.70473877 13896"},{"id":"61182","name":"GALILEO 32 (137)","type":"PAYLOAD","l1":"1 61182U 24167A   26202.36717075  .00000065  00000-0  00000-0 0  9997","l2":"2 61182  55.1779 220.3751 0006380 233.5892 192.1922  1.70474219 11466"},{"id":"61183","name":"GALILEO 31 (10D)","type":"PAYLOAD","l1":"1 61183U 24167B   26202.99405729  .00000069  00000-0  00000-0 0  9991","l2":"2 61183  55.1766 220.3651 0003180 239.5530 302.2968  1.70474215 11440"},{"id":"61186","name":"BEIDOU 3M25","type":"PAYLOAD","l1":"1 61186U 24168B   26203.89252753 -.00000097  00000-0  00000-0 0  9994","l2":"2 61186  54.4389 301.0005 0003525 291.1800  65.3685  1.86230334 12446"},{"id":"61187","name":"BEIDOU 3M27","type":"PAYLOAD","l1":"1 61187U 24168C   26200.42214709 -.00000096  00000-0  00000-0 0  9999","l2":"2 61187  54.4377 301.1038 0000858  40.8164 284.0569  1.86230211  9855"},{"id":"62339","name":"NAVSTAR 83 (USA 440)","type":"PAYLOAD","l1":"1 62339U 24242A   26200.72170847 -.00000109  00000-0  00000-0 0  9994","l2":"2 62339  54.8338 332.8621 0017996   4.3540 337.1791  2.00572353 11908"},{"id":"62876","name":"QZS-6","type":"PAYLOAD","l1":"1 62876U 25023A   26203.91353763 -.00000229  00000-0  00000-0 0  9995","l2":"2 62876   0.0181  52.9322 0002063  62.4265 244.6632  1.00273907  5304"},{"id":"63130","name":"COSMOS 2584(GLONASS)","type":"PAYLOAD","l1":"1 63130U 25042A   26202.86533319 -.00000053  00000-0  00000-0 0  9995","l2":"2 63130  65.1046  71.6233 0005592 211.4404 148.5924  2.13103874 10784"},{"id":"64202","name":"NAVSTAR 84 (USA 545)","type":"PAYLOAD","l1":"1 64202U 25116A   26202.24475308 -.00000088  00000-0  00000-0 0  9991","l2":"2 64202  55.2580  29.7605 0008411 339.2727 205.1759  2.00573612  8550"},{"id":"65590","name":"COSMOS 2595 (GLONASS)","type":"PAYLOAD","l1":"1 65590U 25206B   26202.71196580 -.00000090  00000-0  00000-0 0  9999","l2":"2 65590  64.6120 313.7831 0011241 307.0070  51.3277  2.13101030  6640"},{"id":"67160","name":"GALILEO 33 (138)","type":"PAYLOAD","l1":"1 67160U 25302A   26202.83917450 -.00000048  00000-0  00000-0 0  9994","l2":"2 67160  54.3554 101.1433 0001184 153.0567  30.2541  1.70474120  3714"},{"id":"67162","name":"GALILEO 34 (139)","type":"PAYLOAD","l1":"1 67162U 25302C   26203.12668492 -.00000048  00000-0  00000-0 0  9998","l2":"2 67162  54.3576 101.1340 0001590 326.2968 213.5665  1.70474069  3778"},{"id":"67588","name":"NAVSTAR 85 (USA 581)","type":"PAYLOAD","l1":"1 67588U 26017A   26201.10242183 -.00000054  00000-0  00000-0 0  9992","l2":"2 67588  55.1095  87.4339 0021306 260.2926  99.5185  2.00570435432275"},{"id":"68791","name":"NAVSTAR 86 (USA 585)","type":"PAYLOAD","l1":"1 68791U 26087A   26203.31572446  .00000086  00000-0  00000-0 0  9993","l2":"2 68791  54.9613 206.3984 0020517 105.9456 257.8163  2.00573383  1541"}]}